STARLINK-5735           
1 55603U 23020AL  26176.85429495  .00000179  00000+0  16037-4 0  9991
2 55603  43.0034 103.2105 0001510 270.3390  89.7288 15.27574164185589
STARLINK-5720           
1 55619U 23020BC  26176.86071698  .00000076  00000+0  12308-4 0  9990
2 55619  43.0045 103.2482 0001600 274.6616  85.4053 15.27577256185571
STARLINK-5718           
1 55620U 23020BD  26176.86457119  .00000077  00000+0  12325-4 0  9998
2 55620  43.0053 103.2795 0001651 268.2968  91.7695 15.27577416185585
STARLINK-5709           
1 55621U 23020BE  26176.84915290  .00000105  00000+0  13330-4 0  9995
2 55621  43.0055 103.1671 0001496 279.6080  80.4602 15.27576939185580
STARLINK-5698           
1 55623U 23020BG  26176.80560628 -.00000045  00000+0  79065-5 0  9996
2 55623  43.0031 103.6945 0001718 265.4239  94.6417 15.27581669  8997
STARLINK-35663          
1 66491U 25263G   26176.48556281  .00019466  00000+0  71457-3 0  9997
2 66491  43.0016 102.0257 0001642 262.5627  97.5038 15.27600827 35381
